[{"OBJECT_NAME":"STARLINK-1446","OBJECT_ID":"2020-035G","EPOCH":"2026-03-09T22:34:36.621696","MEAN_MOTION":15.42911141,"ECCENTRICITY":3.749e-5,"INCLINATION":53.0259,"RA_OF_ASC_NODE":358.185,"ARG_OF_PERICENTER":267.9178,"MEAN_ANOMALY":92.1784,"EPHEMERIS_TYPE":0,"CLASSIFICATION_TYPE":"U","NORAD_CAT_ID":45663,"ELEMENT_SET_NO":999,"REV_AT_EPOCH":31971,"BSTAR":0.00054126708,"MEAN_MOTION_DOT":0.00023817,"MEAN_MOTION_DDOT":0},{"OBJECT_NAME":"STARLINK-2159","OBJECT_ID":"2021-017Z","EPOCH":"2026-03-10T00:00:02.999808","MEAN_MOTION":15.44032923,"ECCENTRICITY":0.00013313,"INCLINATION":53.1594,"RA_OF_ASC_NODE":202.7134,"ARG_OF_PERICENTER":70.2433,"MEAN_ANOMALY":28.5184,"EPHEMERIS_TYPE":0,"CLASSIFICATION_TYPE":"U","NORAD_CAT_ID":47745,"ELEMENT_SET_NO":999,"REV_AT_EPOCH":586,"BSTAR":0.00019359105,"MEAN_MOTION_DOT":8.562e-5,"MEAN_MOTION_DDOT":0}]
